QIANFAN-57              
1 62787U 25016C   25343.78852728  .00000202  00000+0  29502-3 0  9992
2 62787  88.9782 103.5032 0002205 123.7597 236.3764 13.50975512 46808
QIANFAN-58              
1 62788U 25016D   25343.75973514  .00000195  00000+0  28391-3 0  9993
2 62788  88.9752 103.3388 0013285 358.4817   1.6292 13.50977323 46845
QIANFAN-59              
1 62789U 25016E   25343.78439892  .00000199  00000+0  28928-3 0  9993
2 62789  88.9776 103.4091 0013767   2.1967 357.9242 13.50978964 46842
QIANFAN-60              
1 62790U 25016F   25343.81746638  .00000091  00000+0  12294-3 0  9998
2 62790  88.9757 103.3779 0015139 357.8126   2.2956 13.50982323 46832
QIANFAN-61              
1 62791U 25016G   25343.77618080  .00000202  00000+0  29385-3 0  9996
2 62791  88.9824 103.5429 0014112 357.7207   2.3878 13.50979339 46849
QIANFAN-62              
1 62792U 25016H   25343.78028750  .00000204  00000+0  29733-3 0  9996
2 62792  88.9771 103.4125 0015499 357.5159   2.5913 13.50975805 46831
QIANFAN-63              
1 62793U 25016J   25343.80501647  .00000214  00000+0  31331-3 0  9999
2 62793  88.9777 103.3613 0015700   2.9038 357.2202 13.50982538 46877
QIANFAN-64              
1 62794U 25016K   25343.77204534  .00000202  00000+0  29435-3 0  9990
2 62794  88.9764 103.3392 0013453 356.6057   3.5001 13.50977583 46862
